{"type": "FeatureCollection", "features": [ {"type": "Feature", "properties": {"norad_id": 66640, "name": "STARLINK-35921", "group": "last-30-days", "lat": 41.676406940107974, "lon": -160.84844830581562, "alt_km": 411.47794982899086, "timestamp": "2025-12-18T23:35:47.781333+00:00", "meta": {"OBJECT_NAME": "STARLINK-35921", "OBJECT_ID": "2025-271Z", "EPOCH": "2025-12-17T02:27:41.322240", "MEAN_MOTION": 15.49331878, "ECCENTRICITY": 0.0001586, "INCLINATION": 53.1597, "RA_OF_ASC_NODE": 166.2791, "ARG_OF_PERICENTER": 66.7649, "MEAN_ANOMALY": 293.3527, "EPHEMERIS_TYPE": 0, "CLASSIFICATION_TYPE": "U", "NORAD_CAT_ID": 66640, "ELEMENT_SET_NO": 999, "REV_AT_EPOCH": 488, "BSTAR": 0.001103034, "MEAN_MOTION_DOT": 0.00061432, "MEAN_MOTION_DDOT": 0}, "tle": {"line1": "1 66640U 25271Z   25351.10256160  .00061432  00000+0  11030-2 0  9998", "line2": "2 66640  53.1597 166.2791 0001586  66.7649 293.3527 15.49331878  4884"}}, "geometry": {"type": "Point", "coordinates": [-160.84844830581562, 41.676406940107974]}}, {"type": "Feature", "properties": {"norad_id": 66641, "name": "STARLINK-35923", "group": "last-30-days", "lat": 45.40100879048747, "lon": -153.23773185841497, "alt_km": 412.12773121071496, "timestamp": "2025-12-18T23:35:47.781343+00:00", "meta": {"OBJECT_NAME": "STARLINK-35923", "OBJECT_ID": "2025-271AA", "EPOCH": "2025-12-18T14:02:13.924032", "MEAN_MOTION": 15.4927475, "ECCENTRICITY": 9.281e-05, "INCLINATION": 53.1592, "RA_OF_ASC_NODE": 159.1756, "ARG_OF_PERICENTER": 78.504, "MEAN_ANOMALY": 281.6073, "EPHEMERIS_TYPE": 0, "CLASSIFICATION_TYPE": "U", "NORAD_CAT_ID": 66641, "ELEMENT_SET_NO": 999, "REV_AT_EPOCH": 511, "BSTAR": 0.00045141192, "MEAN_MOTION_DOT": 0.00024707, "MEAN_MOTION_DDOT": 0}, "tle": {"line1": "1 66641U 25271AA  25352.58488338  .00024707  00000+0  45141-3 0  9991", "line2": "2 66641  53.1592 159.1756 0000928  78.5040 281.6073 15.49274750  5115"}}, "geometry": {"type": "Point", "coordinates": [-153.23773185841497, 45.40100879048747]}}, {"type": "Feature", "properties": {"norad_id": 66642, "name": "STARLINK-35926", "group": "last-30-days", "lat": 44.4796854366818, "lon": -155.31235853160908, "alt_km": 411.9634753628179, "timestamp": "2025-12-18T23:35:47.781354+00:00", "meta": {"OBJECT_NAME": "STARLINK-35926", "OBJECT_ID": "2025-271AB", "EPOCH": "2025-12-18T14:02:42.694368", "MEAN_MOTION": 15.49343929, "ECCENTRICITY": 9.03e-05, "INCLINATION": 53.159, "RA_OF_ASC_NODE": 159.1781, "ARG_OF_PERICENTER": 53.5396, "MEAN_ANOMALY": 306.5697, "EPHEMERIS_TYPE": 0, "CLASSIFICATION_TYPE": "U", "NORAD_CAT_ID": 66642, "ELEMENT_SET_NO": 999, "REV_AT_EPOCH": 507, "BSTAR": 0.0011899463, "MEAN_MOTION_DOT": 0.00066378, "MEAN_MOTION_DDOT": 0}, "tle": {"line1": "1 66642U 25271AB  25352.58521637  .00066378  00000+0  11899-2 0  9994", "line2": "2 66642  53.1590 159.1781 0000903  53.5396 306.5697 15.49343929  5071"}}, "geometry": {"type": "Point", "coordinates": [-155.31235853160908, 44.4796854366818]}}, {"type": "Feature", "properties": {"norad_id": 66643, "name": "STARLINK-35918", "group": "last-30-days", "lat": 42.26539313816995, "lon": -159.76506112284324, "alt_km": 412.09817521044624, "timestamp": "2025-12-18T23:35:47.781364+00:00", "meta": {"OBJECT_NAME": "STARLINK-35918", "OBJECT_ID": "2025-271AC", "EPOCH": "2025-12-18T14:03:43.788672", "MEAN_MOTION": 15.49357546, "ECCENTRICITY": 0.00012183, "INCLINATION": 53.1594, "RA_OF_ASC_NODE": 159.1836, "ARG_OF_PERICENTER": 83.2904, "MEAN_ANOMALY": 276.8244, "EPHEMERIS_TYPE": 0, "CLASSIFICATION_TYPE": "U", "NORAD_CAT_ID": 66643, "ELEMENT_SET_NO": 999, "REV_AT_EPOCH": 511, "BSTAR": 0.0014607733, "MEAN_MOTION_DOT": 0.00081789, "MEAN_MOTION_DDOT": 0}, "tle": {"line1": "1 66643U 25271AC  25352.58592348  .00081789  00000+0  14608-2 0  9996", "line2": "2 66643  53.1594 159.1836 0001218  83.2904 276.8244 15.49357546  5114"}}, "geometry": {"type": "Point", "coordinates": [-159.76506112284324, 42.26539313816995]}}, {"type": "Feature", "properties": {"norad_id": 66644, "name": "STARLINK-35938", "group": "last-30-days", "lat": 43.39270972642575, "lon": -157.58239408533797, "alt_km": 412.4283175533501, "timestamp": "2025-12-18T23:35:47.781374+00:00", "meta": {"OBJECT_NAME": "STARLINK-35938", "OBJECT_ID": "2025-271AD", "EPOCH": "2025-12-18T14:03:12.396096", "MEAN_MOTION": 15.49326247, "ECCENTRICITY": 6.971e-05, "INCLINATION": 53.1592, "RA_OF_ASC_NODE": 159.1809, "ARG_OF_PERICENTER": 87.4611, "MEAN_ANOMALY": 272.6478, "EPHEMERIS_TYPE": 0, "CLASSIFICATION_TYPE": "U", "NORAD_CAT_ID": 66644, "ELEMENT_SET_NO": 999, "REV_AT_EPOCH": 511, "BSTAR": 0.00076809482, "MEAN_MOTION_DOT": 0.00042529, "MEAN_MOTION_DDOT": 0}, "tle": {"line1": "1 66644U 25271AD  25352.58556014  .00042529  00000+0  76809-3 0  9998", "line2": "2 66644  53.1592 159.1809 0000697  87.4611 272.6478 15.49326247  5111"}}, "geometry": {"type": "Point", "coordinates": [-157.58239408533797, 43.39270972642575]}}, {"type": "Feature", "properties": {"norad_id": 66645, "name": "SHENZHOU-22", "group": "last-30-days", "lat": -28.22810136165405, "lon": -58.641439983915525, "alt_km": 395.0045603663557, "timestamp": "2025-12-18T23:35:47.781384+00:00", "meta": {"OBJECT_NAME": "SHENZHOU-22", "OBJECT_ID": "2025-272A", "EPOCH": "2025-12-18T06:53:03.575616", "MEAN_MOTION": 15.59417882, "ECCENTRICITY": 0.00077258, "INCLINATION": 41.4683, "RA_OF_ASC_NODE": 343.0261, "ARG_OF_PERICENTER": 79.3286, "MEAN_ANOMALY": 280.8422, "EPHEMERIS_TYPE": 0, "CLASSIFICATION_TYPE": "U", "NORAD_CAT_ID": 66645, "ELEMENT_SET_NO": 999, "REV_AT_EPOCH": 26357, "BSTAR": 0.00029030456, "MEAN_MOTION_DOT": 0.00023377, "MEAN_MOTION_DDOT": 0}, "tle": {"line1": "1 66645U 25272A   25352.28684694  .00023377  00000+0  29030-3 0  9997", "line2": "2 66645  41.4683 343.0261 0007725  79.3286 280.8422 15.59417882263579"}}, "geometry": {"type": "Point", "coordinates": [-58.641439983915525, -28.22810136165405]}}, {"type": "Feature", "properties": {"norad_id": 66647, "name": "COSMOS 2597 (RODNIK-S 22)", "group": "last-30-days", "lat": -68.71644662983533, "lon": -97.19346790592067, "alt_km": 1499.8552411881274, "timestamp": "2025-12-18T23:35:47.781396+00:00", "meta": {"OBJECT_NAME": "COSMOS 2597 (RODNIK-S 22)", "OBJECT_ID": "2025-273A", "EPOCH": "2025-12-18T14:18:20.890368", "MEAN_MOTION": 12.4195201, "ECCENTRICITY": 0.000765, "INCLINATION": 82.4992, "RA_OF_ASC_NODE": 282.8125, "ARG_OF_PERICENTER": 272.865, "MEAN_ANOMALY": 87.1554, "EPHEMERIS_TYPE": 0, "CLASSIFICATION_TYPE": "U", "NORAD_CAT_ID": 66647, "ELEMENT_SET_NO": 999, "REV_AT_EPOCH": 286, "BSTAR": -5.6725107e-05, "MEAN_MOTION_DOT": 2e-08, "MEAN_MOTION_DDOT": 0}, "tle": {"line1": "1 66647U 25273A   25352.59607512  .00000002  00000+0 -56725-4 0  9991", "line2": "2 66647  82.4992 282.8125 0007650 272.8650  87.1554 12.41952010  2862"}}, "geometry": {"type": "Point", "coordinates": [-97.19346790592067, -68.71644662983533]}}, {"type": "Feature", "properties": {"norad_id": 66648, "name": "COSMOS 2598 (RODNIK-S 23)", "group": "last-30-days", "lat": -5.525474190507296, "lon": -78.1644729377933, "alt_km": 1500.6034583938672, "timestamp": "2025-12-18T23:35:47.781407+00:00", "meta": {"OBJECT_NAME": "COSMOS 2598 (RODNIK-S 23)", "OBJECT_ID": "2025-273B", "EPOCH": "2025-12-18T13:58:10.464384", "MEAN_MOTION": 12.43233463, "ECCENTRICITY": 0.00080555, "INCLINATION": 82.503, "RA_OF_ASC_NODE": 282.8148, "ARG_OF_PERICENTER": 222.8912, "MEAN_ANOMALY": 137.154, "EPHEMERIS_TYPE": 0, "CLASSIFICATION_TYPE": "U", "NORAD_CAT_ID": 66648, "ELEMENT_SET_NO": 999, "REV_AT_EPOCH": 286, "BSTAR": -3.9201549e-05, "MEAN_MOTION_DOT": 4e-08, "MEAN_MOTION_DDOT": 0}, "tle": {"line1": "1 66648U 25273B   25352.58206556  .00000004  00000+0 -39202-4 0  9997", "line2": "2 66648  82.5030 282.8148 0008055 222.8912 137.1540 12.43233463  2865"}}, "geometry": {"type": "Point", "coordinates": [-78.1644729377933, -5.525474190507296]}}, {"type": "Feature", "properties": {"norad_id": 66649, "name": "COSMOS 2599 (RODNIK-S 24)", "group": "last-30-days", "lat": -71.81049731624307, "lon": 126.21590739563167, "alt_km": 1504.145394807776, "timestamp": "2025-12-18T23:35:47.781417+00:00", "meta": {"OBJECT_NAME": "COSMOS 2599 (RODNIK-S 24)", "OBJECT_ID": "2025-273C", "EPOCH": "2025-12-18T14:29:48.238656", "MEAN_MOTION": 12.41150971, "ECCENTRICITY": 0.0006277, "INCLINATION": 82.5048, "RA_OF_ASC_NODE": 282.8335, "ARG_OF_PERICENTER": 264.2003, "MEAN_ANOMALY": 95.836, "EPHEMERIS_TYPE": 0, "CLASSIFICATION_TYPE": "U", "NORAD_CAT_ID": 66649, "ELEMENT_SET_NO": 999, "REV_AT_EPOCH": 286, "BSTAR": -4.7692865e-05, "MEAN_MOTION_DOT": 3e-08, "MEAN_MOTION_DDOT": 0}, "tle": {"line1": "1 66649U 25273C   25352.60403054  .00000003  00000+0 -47693-4 0  9995", "line2": "2 66649  82.5048 282.8335 0006277 264.2003  95.8360 12.41150971  2868"}}, "geometry": {"type": "Point", "coordinates": [126.21590739563167, -71.81049731624307]}}, {"type": "Feature", "properties": {"norad_id": 66650, "name": "BEE-1000", "group": "last-30-days", "lat": -40.8550891535479, "lon": -73.18861150565532, "alt_km": 599.3119667882738, "timestamp": "2025-12-18T23:35:47.781432+00:00", "meta": {"OBJECT_NAME": "BEE-1000", "OBJECT_ID": "2025-274A", "EPOCH": "2025-12-18T06:04:20.956512", "MEAN_MOTION": 14.9168004, "ECCENTRICITY": 0.00106199, "INCLINATION": 97.7399, "RA_OF_ASC_NODE": 279.3395, "ARG_OF_PERICENTER": 230.8945, "MEAN_ANOMALY": 129.133, "EPHEMERIS_TYPE": 0, "CLASSIFICATION_TYPE": "U", "NORAD_CAT_ID": 66650, "ELEMENT_SET_NO": 999, "REV_AT_EPOCH": 322, "BSTAR": 0.00011571138, "MEAN_MOTION_DOT": 1.109e-05, "MEAN_MOTION_DDOT": 0}, "tle": {"line1": "1 66650U 25274A   25352.25302033  .00001109  00000+0  11571-3 0  9996", "line2": "2 66650  97.7399 279.3395 0010619 230.8945 129.1330 14.91680040  3224"}}, "geometry": {"type": "Point", "coordinates": [-73.18861150565532, -40.8550891535479]}}]}